GOES 1 (SMS-C) [-]      
1 08366U 75100A   22235.44142924 -.00000226  00000+0  00000+0 0  9999
2 08366   8.1187 294.8834 0002766 239.4211 235.7566  1.00272538171237
GOES 2 [-]              
1 10061U 77048A   22234.48337139  .00000087  00000+0  00000+0 0  9998
2 10061   9.7040 306.3873 0010110  27.7110  25.9246  0.99396973 32414
GOES 3 [-]              
1 10953U 78062A   22233.81177025  .00000079  00000+0  00000+0 0  9998
2 10953  10.0369 310.9233 0003295 164.1166 216.9162  0.99357295114736
GOES 4 [-]              
1 11964U 80074A   22233.67573767 -.00000158  00000+0  00000+0 0  9993
2 11964  10.9997 314.7494 0032172  78.1467 287.9211  0.99228958113599
GOES 5 [-]              
1 12472U 81049A   22234.21936841 -.00000267  00000+0  00000+0 0  9999
2 12472  11.8463 326.1338 0002579 173.5738 196.2638  1.00309384108860
GOES 6 [-]              
1 14050U 83041A   22235.27573221 -.00000257  00000+0  00000+0 0  9992
2 14050  12.4078 331.4361 0005344 152.8867 230.0545  1.00289588202080
GOES 7 [-]              
1 17561U 87022A   22234.58620287 -.00000216  00000+0  00000+0 0  9998
2 17561  14.1862 348.0011 0005446  81.0770 271.2009  0.99910432113028
GOES 8 [-]              
1 23051U 94022A   22234.58174352 -.00000018  00000+0  00000+0 0  9994
2 23051  13.2319  23.7170 0006377  56.6498 136.6298  0.98904774110334
GOES 9 [-]              
1 23581U 95025A   22234.47004458 -.00000070  00000+0  00000+0 0  9991
2 23581  12.7255  24.0616 0008993 106.6221 287.2160  0.98798680 98984
GOES 10 [-]             
1 24786U 97019A   22234.59249473 -.00000034  00000+0  00000+0 0  9995
2 24786  11.4928  30.2480 0026648 198.8226 342.1184  0.99125188 92246
GOES 11 [-]             
1 26352U 00022A   22234.61004285  .00000058  00000+0  00000+0 0  9992
2 26352   8.8201  58.7879 0002339  98.7961 266.7353  0.99040853 38663
GOES 12 [-]             
1 26871U 01031A   22234.59911262 -.00000228  00000+0  00000+0 0  9998
2 26871   9.6331  47.7399 0004534 343.0224 325.4125  0.99140940 76934
EWS-G1 (GOES 13) [+]    
1 29155U 06018A   22235.20605059  .00000032  00000+0  00000+0 0  9991
2 29155   0.7559  96.4162 0005768 103.8125 266.8447  1.00275395 59535
GOES 14 [B]             
1 35491U 09033A   22235.42766825 -.00000097  00000+0  00000+0 0  9996
2 35491   0.4707  94.1371 0015016 119.6181 167.3608  1.00272707 48185
GOES 15 [B]             
1 36411U 10008A   22235.41340788  .00000049  00000+0  00000+0 0  9994
2 36411   0.4168 276.3895 0004620 249.7916 186.2870  1.00274804 45687
GOES 16 [+]             
1 41866U 16071A   22235.44494833 -.00000253  00000+0  00000+0 0  9992
2 41866   0.0650 275.5697 0000649 304.2026 196.9142  1.00272027 21135
GOES 17 [+]             
1 43226U 18022A   22234.64215821  .00000094  00000+0  00000+0 0  9993
2 43226   0.0971 275.0669 0000199 263.1919 246.5141  1.00271802 16439
GOES 18 [+]             
1 51850U 22021A   22235.47549375  .00000092  00000+0  00000+0 0  9993
2 51850   0.0366  82.2489 0002813 131.7217 151.9544  1.00271447  1832
